{
    "links": {
        "self": "http://www.neowsapp.com/rest/v1/neo/3883110?api_key=iIulBulltgU6a56xZRHN4H3l9WmuAYTsLGpBGhQ2"
    },
    "id": "3883110",
    "neo_reference_id": "3883110",
    "name": "(2019 UN8)",
    "designation": "2019 UN8",
    "nasa_jpl_url": "http://ssd.jpl.nasa.gov/sbdb.cgi?sstr=3883110",
    "absolute_magnitude_h": 29.7,
    "estimated_diameter": {
        "kilometers": {
            "estimated_diameter_min": 0.0030517923,
            "estimated_diameter_max": 0.0068240151
        },
        "meters": {
            "estimated_diameter_min": 3.0517923259,
            "estimated_diameter_max": 6.824015094
        },
        "miles": {
            "estimated_diameter_min": 0.0018962952,
            "estimated_diameter_max": 0.0042402451
        },
        "feet": {
            "estimated_diameter_min": 10.0124423346,
            "estimated_diameter_max": 22.388501681
        }
    },
    "is_potentially_hazardous_asteroid": false,
    "close_approach_data": [
        {
            "close_approach_date": "2019-10-23",
            "close_approach_date_full": "2019-Oct-23 15:09",
            "epoch_date_close_approach": 1571843340000,
            "relative_velocity": {
                "kilometers_per_second": "20.2803727124",
                "kilometers_per_hour": "73009.3417647847",
                "miles_per_hour": "45365.1657204575"
            },
            "miss_distance": {
                "astronomical": "0.0045330287",
                "lunar": "1.7633481643",
                "kilometers": "678131.438168869",
                "miles": "421371.3364296322"
            },
            "orbiting_body": "Moon"
        },
        {
            "close_approach_date": "2019-10-23",
            "close_approach_date_full": "2019-Oct-23 16:36",
            "epoch_date_close_approach": 1571848560000,
            "relative_velocity": {
                "kilometers_per_second": "19.2803817949",
                "kilometers_per_hour": "69409.3744616155",
                "miles_per_hour": "43128.2860369966"
            },
            "miss_distance": {
                "astronomical": "0.0024111217",
                "lunar": "0.9379263413",
                "kilometers": "360698.670630779",
                "miles": "224127.7609875902"
            },
            "orbiting_body": "Earth"
        }
    ],
    "orbital_data": {
        "orbit_id": "2",
        "orbit_determination_date": "2020-01-17 05:08:42",
        "first_observation_date": "2019-10-25",
        "last_observation_date": "2019-10-29",
        "data_arc_in_days": 4,
        "observations_used": 17,
        "orbit_uncertainty": "8",
        "minimum_orbit_intersection": ".00121796",
        "jupiter_tisserand_invariant": "2.988",
        "epoch_osculation": "2458785.5",
        "eccentricity": ".7240124895933935",
        "semi_major_axis": "2.580206533958239",
        "inclination": ".3544408485968138",
        "ascending_node_longitude": "18.41507197609198",
        "orbital_period": "1513.8405456211",
        "perihelion_distance": ".7121047776419938",
        "perihelion_argument": "299.9815328553404",
        "aphelion_distance": "4.448308290274485",
        "perihelion_time": "2458738.129330882178",
        "mean_anomaly": "11.26501792526585",
        "mean_motion": ".2378057590288011",
        "equinox": "J2000",
        "orbit_class": {
            "orbit_class_type": "APO",
            "orbit_class_description": "Near-Earth asteroid orbits which cross the Earth’s orbit similar to that of 1862 Apollo",
            "orbit_class_range": "a (semi-major axis) > 1.0 AU; q (perihelion) < 1.017 AU"
        }
    },
    "is_sentry_object": false
}